{
    "links": {
        "self": "http://www.neowsapp.com/rest/v1/neo/3836410?api_key=iIulBulltgU6a56xZRHN4H3l9WmuAYTsLGpBGhQ2"
    },
    "id": "3836410",
    "neo_reference_id": "3836410",
    "name": "(2018 WA2)",
    "designation": "2018 WA2",
    "nasa_jpl_url": "http://ssd.jpl.nasa.gov/sbdb.cgi?sstr=3836410",
    "absolute_magnitude_h": 22.7,
    "estimated_diameter": {
        "kilometers": {
            "estimated_diameter_min": 0.0766575574,
            "estimated_diameter_max": 0.1714115092
        },
        "meters": {
            "estimated_diameter_min": 76.6575573531,
            "estimated_diameter_max": 171.4115092306
        },
        "miles": {
            "estimated_diameter_min": 0.0476327831,
            "estimated_diameter_max": 0.1065101409
        },
        "feet": {
            "estimated_diameter_min": 251.5011804664,
            "estimated_diameter_max": 562.3737359442
        }
    },
    "is_potentially_hazardous_asteroid": false,
    "close_approach_data": [
        {
            "close_approach_date": "2008-11-28",
            "close_approach_date_full": "2008-Nov-28 12:16",
            "epoch_date_close_approach": 1227874560000,
            "relative_velocity": {
                "kilometers_per_second": "22.9901960906",
                "kilometers_per_hour": "82764.7059262655",
                "miles_per_hour": "51426.7696351287"
            },
            "miss_distance": {
                "astronomical": "0.3821648371",
                "lunar": "148.6621216319",
                "kilometers": "57171045.619056977",
                "miles": "35524440.4574892026"
            },
            "orbiting_body": "Earth"
        },
        {
            "close_approach_date": "2013-12-09",
            "close_approach_date_full": "2013-Dec-09 09:31",
            "epoch_date_close_approach": 1386581460000,
            "relative_velocity": {
                "kilometers_per_second": "17.3813773735",
                "kilometers_per_hour": "62572.9585446454",
                "miles_per_hour": "38880.4030468103"
            },
            "miss_distance": {
                "astronomical": "0.2018561046",
                "lunar": "78.5220246894",
                "kilometers": "30197243.294657202",
                "miles": "18763696.8991133076"
            },
            "orbiting_body": "Earth"
        },
        {
            "close_approach_date": "2018-12-22",
            "close_approach_date_full": "2018-Dec-22 05:13",
            "epoch_date_close_approach": 1545455580000,
            "relative_velocity": {
                "kilometers_per_second": "12.3342082653",
                "kilometers_per_hour": "44403.1497549263",
                "miles_per_hour": "27590.3904685541"
            },
            "miss_distance": {
                "astronomical": "0.0590955203",
                "lunar": "22.9881573967",
                "kilometers": "8840563.963421761",
                "miles": "5493271.7204758618"
            },
            "orbiting_body": "Earth"
        }
    ],
    "orbital_data": {
        "orbit_id": "16",
        "orbit_determination_date": "2020-09-11 07:41:26",
        "first_observation_date": "2018-11-28",
        "last_observation_date": "2018-12-20",
        "data_arc_in_days": 22,
        "observations_used": 94,
        "orbit_uncertainty": "7",
        "minimum_orbit_intersection": ".00463323",
        "jupiter_tisserand_invariant": "3.824",
        "epoch_osculation": "2459000.5",
        "eccentricity": ".5323511980558182",
        "semi_major_axis": "1.847016092294085",
        "inclination": "3.019849966229129",
        "ascending_node_longitude": "21.15407673765835",
        "orbital_period": "916.8629971864194",
        "perihelion_distance": ".8637548627329531",
        "perihelion_argument": "122.1484119442314",
        "aphelion_distance": "2.830277321855216",
        "perihelion_time": "2459429.260097924997",
        "mean_anomaly": "191.6502730215261",
        "mean_motion": ".3926431769029105",
        "equinox": "J2000",
        "orbit_class": {
            "orbit_class_type": "APO",
            "orbit_class_description": "Near-Earth asteroid orbits which cross the Earth’s orbit similar to that of 1862 Apollo",
            "orbit_class_range": "a (semi-major axis) > 1.0 AU; q (perihelion) < 1.017 AU"
        }
    },
    "is_sentry_object": false
}